{
  "type": "FeatureCollection",
  "features": [
    {
      "type": "Feature",
      "properties": {
        "norad_id": 56564,
        "name": "BEIDOU-3 G4 (C62)",
        "group": "gnss",
        "lat": 0.8619590267598083,
        "lon": 34.269701199114145,
        "alt_km": 35797.25899486521,
        "timestamp": "2025-12-02T10:50:47.516958+00:00",
        "meta_object_name": "BEIDOU-3 G4 (C62)",
        "meta_object_id": "2023-066A",
        "meta_epoch": "2025-12-02T04:16:27.185088",
        "meta_mean_motion": 1.00271071,
        "meta_eccentricity": 0.0003397,
        "meta_inclination": 0.84,
        "meta_ra_of_asc_node": 301.1189,
        "meta_arg_of_pericenter": 233.9085,
        "meta_mean_anomaly": 120.4429,
        "meta_ephemeris_type": 0,
        "meta_classification_type": "U",
        "meta_norad_cat_id": 56564,
        "meta_element_set_no": 999,
        "meta_rev_at_epoch": 941,
        "meta_bstar": 0,
        "meta_mean_motion_dot": -9e-07,
        "meta_mean_motion_ddot": 0,
        "tle_line1": "1 56564U 23066A   25336.17809242 -.00000090  00000+0  00000+0 0  9993",
        "tle_line2": "2 56564   0.8400 301.1189 0003397 233.9085 120.4429  1.00271071  9410"
      },
      "geometry": {
        "type": "Point",
        "coordinates": [
          34.269701199114145,
          0.8619590267598083
        ]
      }
    },
    {
      "type": "Feature",
      "properties": {
        "norad_id": 56759,
        "name": "NVS-01 (IRNSS-1J)",
        "group": "gnss",
        "lat": 2.476252144341315,
        "lon": 3.891827794832192,
        "alt_km": 35796.976840681935,
        "timestamp": "2025-12-02T10:50:47.516979+00:00",
        "meta_object_name": "NVS-01 (IRNSS-1J)",
        "meta_object_id": "2023-076A",
        "meta_epoch": "2025-12-02T04:07:35.533056",
        "meta_mean_motion": 1.00267947,
        "meta_eccentricity": 0.0008547,
        "meta_inclination": 2.6465,
        "meta_ra_of_asc_node": 251.988,
        "meta_arg_of_pericenter": 5.7439,
        "meta_mean_anomaly": 5.0068,
        "meta_ephemeris_type": 0,
        "meta_classification_type": "U",
        "meta_norad_cat_id": 56759,
        "meta_element_set_no": 999,
        "meta_rev_at_epoch": 914,
        "meta_bstar": 0,
        "meta_mean_motion_dot": -3.13e-06,
        "meta_mean_motion_ddot": 0,
        "tle_line1": "1 56759U 23076A   25336.17193904 -.00000313  00000+0  00000+0 0  9999",
        "tle_line2": "2 56759   2.6465 251.9880 0008547   5.7439   5.0068  1.00267947  9141"
      },
      "geometry": {
        "type": "Point",
        "coordinates": [
          3.891827794832192,
          2.476252144341315
        ]
      }
    },
    {
      "type": "Feature",
      "properties": {
        "norad_id": 57517,
        "name": "COSMOS 2569 (703K)",
        "group": "gnss",
        "lat": -35.35211854778981,
        "lon": -81.6113775442056,
        "alt_km": 19124.484589088614,
        "timestamp": "2025-12-02T10:50:47.516997+00:00",
        "meta_object_name": "COSMOS 2569 (703K)",
        "meta_object_id": "2023-114A",
        "meta_epoch": "2025-12-01T05:26:50.828352",
        "meta_mean_motion": 2.13103848,
        "meta_eccentricity": 0.0010073,
        "meta_inclination": 65.188,
        "meta_ra_of_asc_node": 79.3026,
        "meta_arg_of_pericenter": 287.0136,
        "meta_mean_anomaly": 72.876,
        "meta_ephemeris_type": 0,
        "meta_classification_type": "U",
        "meta_norad_cat_id": 57517,
        "meta_element_set_no": 999,
        "meta_rev_at_epoch": 1804,
        "meta_bstar": 0,
        "meta_mean_motion_dot": -1.2e-07,
        "meta_mean_motion_ddot": 0,
        "tle_line1": "1 57517U 23114A   25335.22697718 -.00000012  00000+0  00000+0 0  9998",
        "tle_line2": "2 57517  65.1880  79.3026 0010073 287.0136  72.8760  2.13103848 18043"
      },
      "geometry": {
        "type": "Point",
        "coordinates": [
          -81.6113775442056,
          -35.35211854778981
        ]
      }
    },
    {
      "type": "Feature",
      "properties": {
        "norad_id": 58654,
        "name": "BEIDOU-3 M28 (C50)",
        "group": "gnss",
        "lat": 28.330065042076345,
        "lon": -132.71739508386628,
        "alt_km": 21527.41712692749,
        "timestamp": "2025-12-02T10:50:47.517017+00:00",
        "meta_object_name": "BEIDOU-3 M28 (C50)",
        "meta_object_id": "2023-207A",
        "meta_epoch": "2025-12-01T03:53:10.155840",
        "meta_mean_motion": 1.862296,
        "meta_eccentricity": 0.00019433,
        "meta_inclination": 55.5745,
        "meta_ra_of_asc_node": 68.9936,
        "meta_arg_of_pericenter": 264.3364,
        "meta_mean_anomaly": 95.6455,
        "meta_ephemeris_type": 0,
        "meta_classification_type": "U",
        "meta_norad_cat_id": 58654,
        "meta_element_set_no": 999,
        "meta_rev_at_epoch": 1315,
        "meta_bstar": 0,
        "meta_mean_motion_dot": -4e-07,
        "meta_mean_motion_ddot": 0,
        "tle_line1": "1 58654U 23207A   25335.16192310 -.00000040  00000+0  00000+0 0  9996",
        "tle_line2": "2 58654  55.5745  68.9936 0001943 264.3364  95.6455  1.86229600 13155"
      },
      "geometry": {
        "type": "Point",
        "coordinates": [
          -132.71739508386628,
          28.330065042076345
        ]
      }
    },
    {
      "type": "Feature",
      "properties": {
        "norad_id": 58655,
        "name": "BEIDOU-3 M26 (C48)",
        "group": "gnss",
        "lat": -54.22036071180795,
        "lon": -2.897503646919733,
        "alt_km": 21525.840981235495,
        "timestamp": "2025-12-02T10:50:47.517038+00:00",
        "meta_object_name": "BEIDOU-3 M26 (C48)",
        "meta_object_id": "2023-207B",
        "meta_epoch": "2025-11-29T21:15:29.587968",
        "meta_mean_motion": 1.86231123,
        "meta_eccentricity": 0.00033719,
        "meta_inclination": 55.5753,
        "meta_ra_of_asc_node": 69.0231,
        "meta_arg_of_pericenter": 249.3814,
        "meta_mean_anomaly": 110.59,
        "meta_ephemeris_type": 0,
        "meta_classification_type": "U",
        "meta_norad_cat_id": 58655,
        "meta_element_set_no": 999,
        "meta_rev_at_epoch": 1311,
        "meta_bstar": 0,
        "meta_mean_motion_dot": -3.1e-07,
        "meta_mean_motion_ddot": 0,
        "tle_line1": "1 58655U 23207B   25333.88575912 -.00000031  00000+0  00000+0 0  9997",
        "tle_line2": "2 58655  55.5753  69.0231 0003371 249.3814 110.5900  1.86231123 13116"
      },
      "geometry": {
        "type": "Point",
        "coordinates": [
          -2.897503646919733,
          -54.22036071180795
        ]
      }
    },
    {
      "type": "Feature",
      "properties": {
        "norad_id": 59598,
        "name": "GSAT0225 (GALILEO 29)",
        "group": "gnss",
        "lat": 54.57877027177346,
        "lon": -173.4054953035043,
        "alt_km": 23215.487034474878,
        "timestamp": "2025-12-02T10:50:47.517056+00:00",
        "meta_object_name": "GSAT0225 (GALILEO 29)",
        "meta_object_id": "2024-079A",
        "meta_epoch": "2025-12-01T03:29:20.871744",
        "meta_mean_motion": 1.70474544,
        "meta_eccentricity": 0.0002155,
        "meta_inclination": 54.9941,
        "meta_ra_of_asc_node": 106.6197,
        "meta_arg_of_pericenter": 171.5653,
        "meta_mean_anomaly": 190.7741,
        "meta_ephemeris_type": 0,
        "meta_classification_type": "U",
        "meta_norad_cat_id": 59598,
        "meta_element_set_no": 999,
        "meta_rev_at_epoch": 994,
        "meta_bstar": 0,
        "meta_mean_motion_dot": 4.1e-07,
        "meta_mean_motion_ddot": 0,
        "tle_line1": "1 59598U 24079A   25335.14538046  .00000041  00000+0  00000+0 0  9990",
        "tle_line2": "2 59598  54.9941 106.6197 0002155 171.5653 190.7741  1.70474544  9948"
      },
      "geometry": {
        "type": "Point",
        "coordinates": [
          -173.4054953035043,
          54.57877027177346
        ]
      }
    },
    {
      "type": "Feature",
      "properties": {
        "norad_id": 59600,
        "name": "GSAT0227 (GALILEO 30)",
        "group": "gnss",
        "lat": -22.85987130594375,
        "lon": 89.38102240229668,
        "alt_km": 23233.245261975626,
        "timestamp": "2025-12-02T10:50:47.517075+00:00",
        "meta_object_name": "GSAT0227 (GALILEO 30)",
        "meta_object_id": "2024-079C",
        "meta_epoch": "2025-11-30T03:38:35.461248",
        "meta_mean_motion": 1.70474636,
        "meta_eccentricity": 0.00034867,
        "meta_inclination": 54.9888,
        "meta_ra_of_asc_node": 106.6465,
        "meta_arg_of_pericenter": 113.1426,
        "meta_mean_anomaly": 246.8704,
        "meta_ephemeris_type": 0,
        "meta_classification_type": "U",
        "meta_norad_cat_id": 59600,
        "meta_element_set_no": 999,
        "meta_rev_at_epoch": 997,
        "meta_bstar": 0,
        "meta_mean_motion_dot": 4.8e-07,
        "meta_mean_motion_ddot": 0,
        "tle_line1": "1 59600U 24079C   25334.15179932  .00000048  00000+0  00000+0 0  9996",
        "tle_line2": "2 59600  54.9888 106.6465 0003486 113.1426 246.8704  1.70474636  9975"
      },
      "geometry": {
        "type": "Point",
        "coordinates": [
          89.38102240229668,
          -22.85987130594375
        ]
      }
    }
  ]
}